{
  "type": "FeatureCollection",
  "features": [
    {
      "type": "Feature",
      "properties": {
        "norad_id": 35996,
        "name": "COSMOS 2251 DEB",
        "group": "cosmos-2251-debris",
        "lat": 16.718805008944937,
        "lon": -111.2951128527659,
        "alt_km": 477.7225347874655,
        "timestamp": "2025-12-27T03:58:44.543635+00:00",
        "meta_object_name": "COSMOS 2251 DEB",
        "meta_object_id": "1993-036AWN",
        "meta_epoch": "2025-12-15T22:25:06.327264",
        "meta_mean_motion": 15.09228347,
        "meta_eccentricity": 0.00876626,
        "meta_inclination": 74.0159,
        "meta_ra_of_asc_node": 96.8248,
        "meta_arg_of_pericenter": 187.0066,
        "meta_mean_anomaly": 172.9909,
        "meta_ephemeris_type": 0,
        "meta_classification_type": "U",
        "meta_norad_cat_id": 35996,
        "meta_element_set_no": 999,
        "meta_rev_at_epoch": 72374,
        "meta_bstar": 0.00054952121,
        "meta_mean_motion_dot": 9.536e-05,
        "meta_mean_motion_ddot": 0,
        "tle_line1": "1 35996U 93036AWN 25349.93410101  .00009536  00000+0  54952-3 0  9995",
        "tle_line2": "2 35996  74.0159  96.8248 0087662 187.0066 172.9909 15.09228347723745"
      },
      "geometry": {
        "type": "Point",
        "coordinates": [
          -111.2951128527659,
          16.718805008944937
        ]
      }
    },
    {
      "type": "Feature",
      "properties": {
        "norad_id": 35997,
        "name": "COSMOS 2251 DEB",
        "group": "cosmos-2251-debris",
        "lat": 50.713476087333206,
        "lon": -40.31787020673172,
        "alt_km": 719.8805958399998,
        "timestamp": "2025-12-27T03:58:44.543644+00:00",
        "meta_object_name": "COSMOS 2251 DEB",
        "meta_object_id": "1993-036AWP",
        "meta_epoch": "2025-12-26T17:28:19.416864",
        "meta_mean_motion": 14.51384876,
        "meta_eccentricity": 0.0015366,
        "meta_inclination": 74.0424,
        "meta_ra_of_asc_node": 160.9776,
        "meta_arg_of_pericenter": 237.5823,
        "meta_mean_anomaly": 122.3852,
        "meta_ephemeris_type": 0,
        "meta_classification_type": "U",
        "meta_norad_cat_id": 35997,
        "meta_element_set_no": 999,
        "meta_rev_at_epoch": 71087,
        "meta_bstar": 0.0007849,
        "meta_mean_motion_dot": 3.108e-05,
        "meta_mean_motion_ddot": 0,
        "tle_line1": "1 35997U 93036AWP 25360.72800251  .00003108  00000+0  78490-3 0  9997",
        "tle_line2": "2 35997  74.0424 160.9776 0015366 237.5823 122.3852 14.51384876710876"
      },
      "geometry": {
        "type": "Point",
        "coordinates": [
          -40.31787020673172,
          50.713476087333206
        ]
      }
    },
    {
      "type": "Feature",
      "properties": {
        "norad_id": 36005,
        "name": "COSMOS 2251 DEB",
        "group": "cosmos-2251-debris",
        "lat": -45.49210774388743,
        "lon": 50.07520743423185,
        "alt_km": 756.0053543880822,
        "timestamp": "2025-12-27T03:58:44.543653+00:00",
        "meta_object_name": "COSMOS 2251 DEB",
        "meta_object_id": "1993-036AWX",
        "meta_epoch": "2025-12-25T12:23:21.312096",
        "meta_mean_motion": 14.47376705,
        "meta_eccentricity": 0.0061491,
        "meta_inclination": 74.027,
        "meta_ra_of_asc_node": 70.1013,
        "meta_arg_of_pericenter": 204.7491,
        "meta_mean_anomaly": 155.0716,
        "meta_ephemeris_type": 0,
        "meta_classification_type": "U",
        "meta_norad_cat_id": 36005,
        "meta_element_set_no": 999,
        "meta_rev_at_epoch": 87769,
        "meta_bstar": 0.00018917,
        "meta_mean_motion_dot": 6.81e-06,
        "meta_mean_motion_ddot": 0,
        "tle_line1": "1 36005U 93036AWX 25359.51621889  .00000681  00000+0  18917-3 0  9992",
        "tle_line2": "2 36005  74.0270  70.1013 0061491 204.7491 155.0716 14.47376705877692"
      },
      "geometry": {
        "type": "Point",
        "coordinates": [
          50.07520743423185,
          -45.49210774388743
        ]
      }
    },
    {
      "type": "Feature",
      "properties": {
        "norad_id": 36045,
        "name": "COSMOS 2251 DEB",
        "group": "cosmos-2251-debris",
        "lat": 69.24063137602151,
        "lon": 160.4089355280974,
        "alt_km": 638.1002301943454,
        "timestamp": "2025-12-27T03:58:44.543662+00:00",
        "meta_object_name": "COSMOS 2251 DEB",
        "meta_object_id": "1993-036AXG",
        "meta_epoch": "2025-12-25T18:51:09.820512",
        "meta_mean_motion": 14.70126783,
        "meta_eccentricity": 0.00481863,
        "meta_inclination": 73.7639,
        "meta_ra_of_asc_node": 33.3725,
        "meta_arg_of_pericenter": 42.7479,
        "meta_mean_anomaly": 317.7422,
        "meta_ephemeris_type": 0,
        "meta_classification_type": "U",
        "meta_norad_cat_id": 36045,
        "meta_element_set_no": 999,
        "meta_rev_at_epoch": 8580,
        "meta_bstar": 0.0019792392,
        "meta_mean_motion_dot": 0.00012107,
        "meta_mean_motion_ddot": 0,
        "tle_line1": "1 36045U 93036AXG 25359.78553033  .00012107  00000+0  19792-2 0  9997",
        "tle_line2": "2 36045  73.7639  33.3725 0048186  42.7479 317.7422 14.70126783 85804"
      },
      "geometry": {
        "type": "Point",
        "coordinates": [
          160.4089355280974,
          69.24063137602151
        ]
      }
    },
    {
      "type": "Feature",
      "properties": {
        "norad_id": 36046,
        "name": "COSMOS 2251 DEB",
        "group": "cosmos-2251-debris",
        "lat": -71.89809928206756,
        "lon": -172.56693798322522,
        "alt_km": 697.6486397450763,
        "timestamp": "2025-12-27T03:58:44.543671+00:00",
        "meta_object_name": "COSMOS 2251 DEB",
        "meta_object_id": "1993-036AXH",
        "meta_epoch": "2025-12-26T11:06:22.807872",
        "meta_mean_motion": 14.65349248,
        "meta_eccentricity": 0.0056191,
        "meta_inclination": 74.0154,
        "meta_ra_of_asc_node": 250.057,
        "meta_arg_of_pericenter": 32.301,
        "meta_mean_anomaly": 139.7691,
        "meta_ephemeris_type": 0,
        "meta_classification_type": "U",
        "meta_norad_cat_id": 36046,
        "meta_element_set_no": 999,
        "meta_rev_at_epoch": 64204,
        "meta_bstar": 0.00051321,
        "meta_mean_motion_dot": 2.805e-05,
        "meta_mean_motion_ddot": 0,
        "tle_line1": "1 36046U 93036AXH 25360.46276398  .00002805  00000+0  51321-3 0  9990",
        "tle_line2": "2 36046  74.0154 250.0570 0056191  32.3010 139.7691 14.65349248642040"
      },
      "geometry": {
        "type": "Point",
        "coordinates": [
          -172.56693798322522,
          -71.89809928206756
        ]
      }
    },
    {
      "type": "Feature",
      "properties": {
        "norad_id": 36047,
        "name": "COSMOS 2251 DEB",
        "group": "cosmos-2251-debris",
        "lat": 18.767036711593057,
        "lon": -49.40967646813561,
        "alt_km": 572.9588055819067,
        "timestamp": "2025-12-27T03:58:44.543680+00:00",
        "meta_object_name": "COSMOS 2251 DEB",
        "meta_object_id": "1993-036AXJ",
        "meta_epoch": "2025-12-21T21:08:53.075040",
        "meta_mean_motion": 14.96393257,
        "meta_eccentricity": 0.000841,
        "meta_inclination": 74.036,
        "meta_ra_of_asc_node": 315.6865,
        "meta_arg_of_pericenter": 344.906,
        "meta_mean_anomaly": 15.1873,
        "meta_ephemeris_type": 0,
        "meta_classification_type": "U",
        "meta_norad_cat_id": 36047,
        "meta_element_set_no": 999,
        "meta_rev_at_epoch": 66076,
        "meta_bstar": 0.0028311075,
        "meta_mean_motion_dot": 0.00032218,
        "meta_mean_motion_ddot": 0,
        "tle_line1": "1 36047U 93036AXJ 25355.88116985  .00032218  00000+0  28311-2 0  9999",
        "tle_line2": "2 36047  74.0360 315.6865 0008410 344.9060  15.1873 14.96393257660764"
      },
      "geometry": {
        "type": "Point",
        "coordinates": [
          -49.40967646813561,
          18.767036711593057
        ]
      }
    },
    {
      "type": "Feature",
      "properties": {
        "norad_id": 36048,
        "name": "COSMOS 2251 DEB",
        "group": "cosmos-2251-debris",
        "lat": 23.00773058020636,
        "lon": 85.78370439281856,
        "alt_km": 783.3851266951506,
        "timestamp": "2025-12-27T03:58:44.543689+00:00",
        "meta_object_name": "COSMOS 2251 DEB",
        "meta_object_id": "1993-036AXK",
        "meta_epoch": "2025-12-26T11:06:59.253120",
        "meta_mean_motion": 14.37874614,
        "meta_eccentricity": 0.0027119,
        "meta_inclination": 74.0571,
        "meta_ra_of_asc_node": 274.0472,
        "meta_arg_of_pericenter": 321.5675,
        "meta_mean_anomaly": 158.955,
        "meta_ephemeris_type": 0,
        "meta_classification_type": "U",
        "meta_norad_cat_id": 36048,
        "meta_element_set_no": 999,
        "meta_rev_at_epoch": 85699,
        "meta_bstar": 0.00026847,
        "meta_mean_motion_dot": 7.87e-06,
        "meta_mean_motion_ddot": 0,
        "tle_line1": "1 36048U 93036AXK 25360.46318580  .00000787  00000+0  26847-3 0  9994",
        "tle_line2": "2 36048  74.0571 274.0472 0027119 321.5675 158.9550 14.37874614856997"
      },
      "geometry": {
        "type": "Point",
        "coordinates": [
          85.78370439281856,
          23.00773058020636
        ]
      }
    }
  ]
}